[{"OBJECT_NAME":"IONOSFERA-M 2","OBJECT_ID":"2024-199B","EPOCH":"2026-03-09T22:15:30.586176","MEAN_MOTION":14.22737815,"ECCENTRICITY":3.184e-5,"INCLINATION":98.7324,"RA_OF_ASC_NODE":302.9812,"ARG_OF_PERICENTER":122.4874,"MEAN_ANOMALY":237.6335,"EPHEMERIS_TYPE":0,"CLASSIFICATION_TYPE":"U","NORAD_CAT_ID":61736,"ELEMENT_SET_NO":999,"REV_AT_EPOCH":11671,"BSTAR":4.5235484e-5,"MEAN_MOTION_DOT":5.7e-7,"MEAN_MOTION_DDOT":0},{"OBJECT_NAME":"NOAA 16 DEB","OBJECT_ID":"2000-055MA","EPOCH":"2026-03-07T08:51:02.820096","MEAN_MOTION":14.23629817,"ECCENTRICITY":0.00097688,"INCLINATION":98.6532,"RA_OF_ASC_NODE":118.9196,"ARG_OF_PERICENTER":70.9431,"MEAN_ANOMALY":289.2805,"EPHEMERIS_TYPE":0,"CLASSIFICATION_TYPE":"U","NORAD_CAT_ID":41502,"ELEMENT_SET_NO":999,"REV_AT_EPOCH":51684,"BSTAR":0.0016863358,"MEAN_MOTION_DOT":3.804e-5,"MEAN_MOTION_DDOT":0}]
